STARLINK-2022           
1 47643U 21012Z   23222.42729044  .00020768  00000+0  14088-2 0  9998
2 47643  53.0539 321.6031 0001118  74.1269 285.9843 15.06404995137729
